[{"OBJECT_NAME":"STARLINK-34925","OBJECT_ID":"2025-179Q","EPOCH":"2026-03-09T16:58:10.617312","MEAN_MOTION":15.05651298,"ECCENTRICITY":0.00010161,"INCLINATION":97.6023,"RA_OF_ASC_NODE":113.0242,"ARG_OF_PERICENTER":122.52,"MEAN_ANOMALY":237.6125,"EPHEMERIS_TYPE":0,"CLASSIFICATION_TYPE":"U","NORAD_CAT_ID":65249,"ELEMENT_SET_NO":999,"REV_AT_EPOCH":3182,"BSTAR":0.00022494632,"MEAN_MOTION_DOT":3.187e-5,"MEAN_MOTION_DDOT":0},{"OBJECT_NAME":"SL-18 R\/B","OBJECT_ID":"2001-007B","EPOCH":"2026-03-09T23:25:11.323200","MEAN_MOTION":15.07301441,"ECCENTRICITY":0.00085554,"INCLINATION":97.6926,"RA_OF_ASC_NODE":87.6817,"ARG_OF_PERICENTER":353.225,"MEAN_ANOMALY":6.886,"EPHEMERIS_TYPE":0,"CLASSIFICATION_TYPE":"U","NORAD_CAT_ID":26703,"ELEMENT_SET_NO":999,"REV_AT_EPOCH":64619,"BSTAR":0.00021543689,"MEAN_MOTION_DOT":3.19e-5,"MEAN_MOTION_DDOT":0}]
